{
  "type": "FeatureCollection",
  "features": [
    {
      "type": "Feature",
      "properties": {
        "norad_id": 66548,
        "name": "CZ-2C R/B",
        "group": "last-30-days",
        "lat": 0.8841521109370519,
        "lon": -9.329328091728675,
        "alt_km": 529.9154459804495,
        "timestamp": "2025-12-08T19:31:47.636636+00:00",
        "meta_object_name": "CZ-2C R/B",
        "meta_object_id": "2025-266D",
        "meta_epoch": "2025-12-08T06:59:03.304608",
        "meta_mean_motion": 15.3003794,
        "meta_eccentricity": 0.00842099,
        "meta_inclination": 52.0568,
        "meta_ra_of_asc_node": 352.4715,
        "meta_arg_of_pericenter": 157.8548,
        "meta_mean_anomaly": 202.611,
        "meta_ephemeris_type": 0,
        "meta_classification_type": "U",
        "meta_norad_cat_id": 66548,
        "meta_element_set_no": 999,
        "meta_rev_at_epoch": 293,
        "meta_bstar": 0.00042330292,
        "meta_mean_motion_dot": 0.00013536,
        "meta_mean_motion_ddot": 0,
        "tle_line1": "1 66548U 25266D   25342.29101047  .00013536  00000+0  42330-3 0  9992",
        "tle_line2": "2 66548  52.0568 352.4715 0084209 157.8548 202.6110 15.30037940  2933"
      },
      "geometry": {
        "type": "Point",
        "coordinates": [
          -9.329328091728675,
          0.8841521109370519
        ]
      }
    },
    {
      "type": "Feature",
      "properties": {
        "norad_id": 66549,
        "name": "SHIJIAN-28",
        "group": "last-30-days",
        "lat": 11.69447031553141,
        "lon": -34.30788113861805,
        "alt_km": 15538.094884856098,
        "timestamp": "2025-12-08T19:31:47.636648+00:00",
        "meta_object_name": "SHIJIAN-28",
        "meta_object_id": "2025-277A",
        "meta_epoch": "2025-11-30T18:06:43.124256",
        "meta_mean_motion": 2.28019775,
        "meta_eccentricity": 0.7300519,
        "meta_inclination": 14.4344,
        "meta_ra_of_asc_node": 275.4056,
        "meta_arg_of_pericenter": 179.5026,
        "meta_mean_anomaly": 182.358,
        "meta_ephemeris_type": 0,
        "meta_classification_type": "U",
        "meta_norad_cat_id": 66549,
        "meta_element_set_no": 999,
        "meta_rev_at_epoch": 4,
        "meta_bstar": 0.00062085,
        "meta_mean_motion_dot": 6.315e-05,
        "meta_mean_motion_ddot": 0,
        "tle_line1": "1 66549U 25277A   25334.75466579  .00006315  00000+0  62085-3 0  9997",
        "tle_line2": "2 66549  14.4344 275.4056 7300519 179.5026 182.3580  2.28019775    48"
      },
      "geometry": {
        "type": "Point",
        "coordinates": [
          -34.30788113861805,
          11.69447031553141
        ]
      }
    },
    {
      "type": "Feature",
      "properties": {
        "norad_id": 66550,
        "name": "CZ-7A R/B",
        "group": "last-30-days",
        "lat": -1.5593757095917495,
        "lon": -94.2013217231562,
        "alt_km": 30396.976778489097,
        "timestamp": "2025-12-08T19:31:47.636661+00:00",
        "meta_object_name": "CZ-7A R/B",
        "meta_object_id": "2025-277B",
        "meta_epoch": "2025-12-08T01:26:17.855232",
        "meta_mean_motion": 2.5400691,
        "meta_eccentricity": 0.71326348,
        "meta_inclination": 14.4014,
        "meta_ra_of_asc_node": 272.2093,
        "meta_arg_of_pericenter": 184.6217,
        "meta_mean_anomaly": 160.9639,
        "meta_ephemeris_type": 0,
        "meta_classification_type": "U",
        "meta_norad_cat_id": 66550,
        "meta_element_set_no": 999,
        "meta_rev_at_epoch": 22,
        "meta_bstar": 0.0031144406,
        "meta_mean_motion_dot": 0.01567094,
        "meta_mean_motion_ddot": 1.09366e-06,
        "tle_line1": "1 66550U 25277B   25342.05992888  .01567094  10937-5  31144-2 0  9992",
        "tle_line2": "2 66550  14.4014 272.2093 7132634 184.6217 160.9639  2.54006910   223"
      },
      "geometry": {
        "type": "Point",
        "coordinates": [
          -94.2013217231562,
          -1.5593757095917495
        ]
      }
    },
    {
      "type": "Feature",
      "properties": {
        "norad_id": 66551,
        "name": "UNKNOWN",
        "group": "last-30-days",
        "lat": 48.19717812974417,
        "lon": -30.75175727749522,
        "alt_km": 330.34447371338865,
        "timestamp": "2025-12-08T19:31:47.636671+00:00",
        "meta_object_name": "UNKNOWN",
        "meta_object_id": "2025-271AE",
        "meta_epoch": "2025-12-02T16:00:03.000096",
        "meta_mean_motion": 15.87051116,
        "meta_eccentricity": 7.17e-05,
        "meta_inclination": 53.1571,
        "meta_ra_of_asc_node": 236.7807,
        "meta_arg_of_pericenter": 110.7411,
        "meta_mean_anomaly": 313.9012,
        "meta_ephemeris_type": 0,
        "meta_classification_type": "U",
        "meta_norad_cat_id": 66551,
        "meta_element_set_no": 999,
        "meta_rev_at_epoch": 262,
        "meta_bstar": -0.0074303,
        "meta_mean_motion_dot": -0.01709685,
        "meta_mean_motion_ddot": 0,
        "tle_line1": "1 66551U 25271AE  25336.66670139 -.01709685  00000+0 -74303-2 0  9993",
        "tle_line2": "2 66551  53.1571 236.7807 0000717 110.7411 313.9012 15.87051116  2624"
      },
      "geometry": {
        "type": "Point",
        "coordinates": [
          -30.75175727749522,
          48.19717812974417
        ]
      }
    },
    {
      "type": "Feature",
      "properties": {
        "norad_id": 66554,
        "name": "GLOBAL-33",
        "group": "last-30-days",
        "lat": -8.858752483696755,
        "lon": 69.68570926352227,
        "alt_km": 469.3683976777347,
        "timestamp": "2025-12-08T19:31:47.636680+00:00",
        "meta_object_name": "GLOBAL-33",
        "meta_object_id": "2025-267A",
        "meta_epoch": "2025-12-07T12:17:03.796800",
        "meta_mean_motion": 15.3146095,
        "meta_eccentricity": 0.00049084,
        "meta_inclination": 42.0198,
        "meta_ra_of_asc_node": 87.1712,
        "meta_arg_of_pericenter": 15.3793,
        "meta_mean_anomaly": 344.7193,
        "meta_ephemeris_type": 0,
        "meta_classification_type": "U",
        "meta_norad_cat_id": 66554,
        "meta_element_set_no": 999,
        "meta_rev_at_epoch": 260,
        "meta_bstar": 0.00066744717,
        "meta_mean_motion_dot": 0.00020529,
        "meta_mean_motion_ddot": 0,
        "tle_line1": "1 66554U 25267A   25341.51184950  .00020529  00000+0  66745-3 0  9994",
        "tle_line2": "2 66554  42.0198  87.1712 0004908  15.3793 344.7193 15.31460950  2600"
      },
      "geometry": {
        "type": "Point",
        "coordinates": [
          69.68570926352227,
          -8.858752483696755
        ]
      }
    },
    {
      "type": "Feature",
      "properties": {
        "norad_id": 66555,
        "name": "ELECTRON KICK STAGE R/B",
        "group": "last-30-days",
        "lat": 23.524571058536043,
        "lon": 108.44965077276265,
        "alt_km": 459.91371892382085,
        "timestamp": "2025-12-08T19:31:47.636690+00:00",
        "meta_object_name": "ELECTRON KICK STAGE R/B",
        "meta_object_id": "2025-267B",
        "meta_epoch": "2025-12-08T06:51:28.969344",
        "meta_mean_motion": 15.32485476,
        "meta_eccentricity": 0.00068793,
        "meta_inclination": 42.0194,
        "meta_ra_of_asc_node": 82.5898,
        "meta_arg_of_pericenter": 19.0488,
        "meta_mean_anomaly": 341.0606,
        "meta_ephemeris_type": 0,
        "meta_classification_type": "U",
        "meta_norad_cat_id": 66555,
        "meta_element_set_no": 999,
        "meta_rev_at_epoch": 272,
        "meta_bstar": 0.00091949454,
        "meta_mean_motion_dot": 0.00029353,
        "meta_mean_motion_ddot": 0,
        "tle_line1": "1 66555U 25267B   25342.28575196  .00029353  00000+0  91949-3 0  9994",
        "tle_line2": "2 66555  42.0194  82.5898 0006879  19.0488 341.0606 15.32485476  2725"
      },
      "geometry": {
        "type": "Point",
        "coordinates": [
          108.44965077276265,
          23.524571058536043
        ]
      }
    },
    {
      "type": "Feature",
      "properties": {
        "norad_id": 66557,
        "name": "STARLINK-35699",
        "group": "last-30-days",
        "lat": 37.744895958857676,
        "lon": -92.01802228491476,
        "alt_km": 405.25670246210484,
        "timestamp": "2025-12-08T19:31:47.636702+00:00",
        "meta_object_name": "STARLINK-35699",
        "meta_object_id": "2025-268A",
        "meta_epoch": "2025-12-08T06:00:02.999808",
        "meta_mean_motion": 15.54791114,
        "meta_eccentricity": 0.00013543,
        "meta_inclination": 43,
        "meta_ra_of_asc_node": 147.4713,
        "meta_arg_of_pericenter": 270.1,
        "meta_mean_anomaly": 289.5127,
        "meta_ephemeris_type": 0,
        "meta_classification_type": "U",
        "meta_norad_cat_id": 66557,
        "meta_element_set_no": 999,
        "meta_rev_at_epoch": 394,
        "meta_bstar": -0.033628099,
        "meta_mean_motion_dot": -0.02049364,
        "meta_mean_motion_ddot": 0,
        "tle_line1": "1 66557U 25268A   25342.25003472 -.02049364  00000+0 -33628-1 0  9993",
        "tle_line2": "2 66557  43.0000 147.4713 0001354 270.1000 289.5127 15.54791114  3946"
      },
      "geometry": {
        "type": "Point",
        "coordinates": [
          -92.01802228491476,
          37.744895958857676
        ]
      }
    }
  ]
}